ELSA-D                  
1 47944U 21022N   25048.70779501  .00088375  00000+0  16374-2 0  9993
2 47944  97.4391 317.2251 0007271 357.4853   2.6359 15.48651192216372
UNISAT-7                
1 47945U 21022P   25048.70201710  .00016411  00000+0  64430-3 0  9995
2 47945  97.4342 307.7630 0012659  10.8246 349.3262 15.25718430215632
2021-022Q               
1 47946U 21022Q   25048.88563365  .00055889  00000+0  12848-2 0  9999
2 47946  97.4365 314.9897 0008191 351.1324   8.9778 15.42447791216243
CUBESX-SIRIUS-HSE       
1 47951U 21022V   25048.92635278  .00101790  00000+0  16144-2 0  9999
2 47951  97.4329 316.3250 0007592   7.0089 353.1268 15.52994055216315
CUBESX-HSE              
1 47952U 21022W   25048.90554413  .00105715  00000+0  16463-2 0  9994
2 47952  97.4329 316.4847 0007230   1.4296 358.6977 15.53489744216329
2021-022X               
1 47953U 21022X   25048.94087873  .00031652  00000+0  10243-2 0  9998
2 47953  97.4324 309.0296 0012906  14.3205 345.8399 15.31907791215597
KSU-CUBESAT             
1 47954U 21022Y   25048.68557043  .00276599  00000+0  18913-2 0  9994
2 47954  97.4306 320.4060 0004307  41.9056 318.2537 15.73976909216277
CHALLENGE ONE           
1 47956U 21022AA  25048.69440461  .00125141  00000+0  15602-2 0  9990
2 47956  97.4322 317.4953 0006618   7.0324 353.1024 15.59453783216152
2021-022AC              
1 47958U 21022AC  25048.95060533  .00034640  00000+0  10580-2 0  9992
2 47958  97.4291 309.5368 0012519  12.0033 348.1506 15.33741032214720
GRBALPHA                
1 47959U 21022AD  25048.93199513  .00101380  00000+0  15883-2 0  9999
2 47959  97.4314 316.6711 0007558   6.2766 353.8580 15.53336679215155
ORBICRAFT-ZORKY         
1 47960U 21022AE  25048.90957689  .00176529  00000+0  18121-2 0  9999
2 47960  97.4309 319.7703 0005040  15.9584 344.1832 15.64343073216012
GLOBAL-9                
1 47971U 21023G   25048.44573826  .00035239  00000+0  91552-3 0  9990
2 47971  44.9866  68.8256 0001260 267.1035  92.9707 15.38406489220203
AII-BRAVO               
1 48270U 21034C   25048.90544148  .00009572  00000+0  82317-3 0  9991
2 48270  97.6203 110.0346 0004748  86.8542 273.3224 14.97596936206988
TYVAK-182A              
1 48271U 21034D   25048.74813164  .00009001  00000+0  74023-3 0  9993
2 48271  97.6189 111.4806 0001686 106.5075 253.6334 14.99356789207062
CSS (TIANHE)            
1 48274U 21035A   25048.94388909  .00037270  00000+0  45292-3 0  9998
2 48274  41.4672  26.6806 0005254 200.9588 159.1035 15.59818964217513
TYVAK-0130              
1 48606U 21041BF  25048.84666358  .00018172  00000+0  90743-3 0  9991
2 48606  53.0308  99.1911 0011588 101.0529 259.1769 15.17506164206571
HAIYANG-2D              
1 48621U 21043A   25048.91736708  .00000011  00000+0  83686-4 0  9997
2 48621  65.9966  70.3646 0009181 259.2001 100.8034 13.83377062189563
2021-050D               
1 48843U 21050D   25048.91090662  .00014031  00000+0  60452-3 0  9995
2 48843  97.3773 129.5181 0000993  71.7758 288.3586 15.22690531205234
BRIK-II                 
1 48876U 21058F   25048.87634906  .00057115  00000+0  90360-3 0  9990
2 48876  60.6640 241.4480 0016035 137.0415 223.1941 15.52919031202974
TYVAK-0173              
1 48892U 21059P   25048.52864806  .00005805  00000+0  79326-3 0  9993
2 48892  95.9800 241.7647 0008509 226.0075 134.0441 14.78790144196535
TUBIN                   
1 48900U 21059X   25048.92007395  .00050496  00000+0  95938-3 0  9992
2 48900  97.6671 210.1664 0005171 290.5009  69.5685 15.48103050202693
MANDRAKE 2 ABLE         
1 48907U 21059AE  25048.92308676  .00022094  00000+0  65069-3 0  9990
2 48907  97.6732 205.2701 0006335 312.1541  47.9162 15.35048574202370
MANDRAKE 2 BAKER        
1 48908U 21059AF  25048.90487840  .00025353  00000+0  72174-3 0  9996
2 48908  97.6748 206.1208 0005765 297.1343  62.9312 15.36089855202415
PACE-1                  
1 48909U 21059AG  25048.90629006  .00030926  00000+0  78141-3 0  9991
2 48909  97.6637 206.0846 0005670 291.8588  68.2053 15.39739814202519
YAM-2                   
1 48911U 21059AJ  25048.93670087  .00075674  00000+0  10925-2 0  9996
2 48911  97.6657 214.3768 0005054 278.0207  82.0472 15.55700476202946
YAM-3                   
1 48915U 21059AN  25048.90024895  .00020396  00000+0  61650-3 0  9990
2 48915  97.6687 205.1115 0006579 295.9114  64.1450 15.34242562202384
FARADAY_PHOENIX         
1 48924U 21059AX  25048.67690462  .00021779  00000+0  59149-3 0  9999
2 48924  97.6720 208.3983 0010527 289.5823  70.4284 15.37550594202536
DEMO8 (TENZING)         
1 48951U 21059CA  25048.94510647  .00021481  00000+0  61643-3 0  9997
2 48951  97.6784 208.4183 0009996 301.4351  58.5914 15.35840840202538
ASTROCAST-0201          
1 48954U 21059CD  25048.71310195  .00032066  00000+0  68357-3 0  9991
2 48954  97.6477 210.3032 0007546 286.0431  73.9986 15.44826262202768
ASTROCAST-0203          
1 48955U 21059CE  25048.92574632  .00036377  00000+0  77516-3 0  9999
2 48955  97.6482 210.0530 0008301 280.9512  79.0801 15.44805968202794
ASTROCAST-0205          
1 48960U 21059CK  25048.94957958  .00038182  00000+0  80946-3 0  9990
2 48960  97.6466 210.3783 0008715 255.8957 104.1322 15.44943067202801
NAPA-2                  
1 48963U 21059CN  25048.90599009  .00036036  00000+0  93186-3 0  9994
2 48963  97.6648 205.0879 0007929 294.3924  65.6493 15.38981671202403
W-CUBE                  
1 48965U 21059CQ  25048.93693530  .00064830  00000+0  10712-2 0  9999
2 48965  97.6629 211.1975 0006148 276.1871  83.8681 15.52004747202755
JILIN-1 GAOFEN 3D01     
1 49004U 21061B   25048.90432310  .00048227  00000+0  11519-2 0  9999
2 49004  97.3618 120.6061 0011703 265.3285  94.6626 15.41295878201356
JILIN-1 GAOFEN 3D03     
1 49006U 21061D   25048.89922418  .00035230  00000+0  10475-2 0  9992
2 49006  97.3601 114.1120 0008175  54.8030 305.3978 15.34632937200930
XINGSHIDAI 10           
1 49007U 21061E   25048.91154987  .00035179  00000+0  10400-2 0  9994
2 49007  97.3595 114.1673 0008655  37.2181 322.9660 15.34810167200937
FENGYUN 3E              
1 49008U 21062A   25048.94278963  .00000081  00000+0  59063-4 0  9994
2 49008  98.7420  53.0302 0002478  63.2477 296.8953 14.19841705187868
ISS (NAUKA)             
1 49044U 21066A   25048.83591009  .00019313  00000+0  34274-3 0  9999
2 49044  51.6363 178.1577 0004271 329.2687  30.8052 15.50226385200854
LEDSAT                  
1 49069U 21073D   25048.75391895  .00055077  00000+0  11704-2 0  9995
2 49069  97.4027 126.9211 0012947 127.4290 232.8139 15.44737503194088
STARLINK-3100           
1 49144U 21082Q   25048.76344972  .00000565  00000+0  55126-4 0  9994
2 49144  70.0008 184.9800 0002981 267.8388  92.2430 14.98332496188322
CUTE                    
1 49263U 21088D   25048.91719927  .00067683  00000+0  16054-2 0  9994
2 49263  97.4637 122.3050 0008272 288.1525  71.8820 15.41451041187193
2021-091B               
1 49316U 21091B   25048.92572751  .00008338  00000+0  41423-3 0  9991
2 49316  97.4508 238.8641 0012735 212.4391 147.6061 15.17849170185507
2021-091H               
1 49322U 21091H   25048.88350085  .00118649  00000+0  10615-2 0  9992
2 49322  97.4139 258.6218 0005091 260.0353 100.0333 15.67972974186878
SDGSAT 1                
1 49387U 21100A   25048.90044378  .00007758  00000+0  36925-3 0  9993
2 49387  97.3315 106.9156 0010117 212.5655 147.4957 15.19384563182378
TEIKYOSAT-4 (OORURI)    
1 49396U 21102B   25048.69003081  .00003502  00000+0  23877-3 0  9992
2 49396  97.4271  91.1135 0013561 150.7495 209.4495 15.06792900179694
Z-SAT                   
1 49399U 21102E   25048.90206512  .00008192  00000+0  46803-3 0  9997
2 49399  97.3977  93.7770 0020029 128.3078 231.9958 15.12786808180083
HIBARI                  
1 49400U 21102F   25048.84266126  .00013599  00000+0  63561-3 0  9997
2 49400  97.3947  97.2977 0016653 110.2593 250.0434 15.19779392180337
KOSEN-1                 
1 49402U 21102H   25048.69852408  .00010962  00000+0  54325-3 0  9995
2 49402  97.3887  96.2132 0018161 108.9701 251.3503 15.17774792180300
GLOBAL-14               
1 49469U 21106A   25048.89010736  .00025428  00000+0  77132-3 0  9998
2 49469  42.0069 242.7217 0014411 294.9270  65.0070 15.33489252183488
GAOFEN-3 02             
1 49495U 21109A   25048.92883026  .00000208  00000+0  76445-4 0  9990
2 49495  98.4145  58.8138 0002707  32.4613 327.6743 14.42207196170514
GLOBAL-12               
1 49772U 21115BA  25048.64752521  .00032654  00000+0  85190-3 0  9995
2 49772  53.2003 175.9822 0003019 316.6852  43.3916 15.38554664181117
GLOBAL-13               
1 49773U 21115BB  25048.61809973  .00032941  00000+0  86068-3 0  9991
2 49773  53.2027 177.3613 0003605 321.1046  38.9699 15.38502268181093
GLOBAL-17               
1 49949U 21120A   25048.89323924  .00037374  00000+0  94652-3 0  9992
2 49949  41.9992   6.6264 0011452 159.4930 200.6371 15.38984021180176
GLOBAL-16               
1 49950U 21120B   25048.21524782  .00038462  00000+0  96848-3 0  9993
2 49950  42.0053  10.1743 0008776 137.6546 222.4973 15.39176058180068
XW-3 (CAS-9)            
1 50466U 21131B   25048.94535931  .00001371  00000+0  44423-3 0  9998
2 50466  98.5127 138.8710 0005222 109.6649 250.5103 14.40543578165378
ION SCV-004             
1 50993U 22002K   25048.74453292  .00008456  00000+0  35381-3 0  9992
2 50993  97.3533 110.5438 0007067 269.6206  90.4222 15.23797159171356
IRIS-A                  
1 51044U 22002BN  25048.74741558  .00089082  00000+0  11649-2 0  9999
2 51044  97.3432 123.8285 0004162 227.4368 132.6537 15.58326457172270
KEPLER-19               
1 51051U 22002BV  25048.74327258  .00239753  00000+0  24798-2 0  9995
2 51051  97.3450 121.4646 0006567 261.6116  98.4399 15.63941567172080
ETV-A1                  
1 51060U 22002CE  25048.95685620  .00015508  00000+0  55935-3 0  9996
2 51060  97.3545 113.8829 0005518 280.2457  79.8161 15.28597202171570
